[{"OBJECT_NAME":"STARLINK-36054","OBJECT_ID":"2025-278X","EPOCH":"2026-03-09T12:35:45.303360","MEAN_MOTION":15.27616009,"ECCENTRICITY":0.0001475,"INCLINATION":43.0022,"RA_OF_ASC_NODE":115.3149,"ARG_OF_PERICENTER":293.8382,"MEAN_ANOMALY":66.2315,"EPHEMERIS_TYPE":0,"CLASSIFICATION_TYPE":"U","NORAD_CAT_ID":66812,"ELEMENT_SET_NO":999,"REV_AT_EPOCH":1518,"BSTAR":0.001053,"MEAN_MOTION_DOT":0.0002886,"MEAN_MOTION_DDOT":0},{"OBJECT_NAME":"DELTA 2 R\/B","OBJECT_ID":"1990-074B","EPOCH":"2026-03-09T13:41:18.722976","MEAN_MOTION":14.63139944,"ECCENTRICITY":0.0331131,"INCLINATION":24.7574,"RA_OF_ASC_NODE":207.7051,"ARG_OF_PERICENTER":168.7615,"MEAN_ANOMALY":192.0502,"EPHEMERIS_TYPE":0,"CLASSIFICATION_TYPE":"U","NORAD_CAT_ID":20763,"ELEMENT_SET_NO":999,"REV_AT_EPOCH":86338,"BSTAR":0.00071917,"MEAN_MOTION_DOT":8.858e-5,"MEAN_MOTION_DDOT":0}]
